NORAD_CAT_ID,OBJECT_NAME,OBJECT_TYPE,EPOCH,MEAN_MOTION,ECCENTRICITY,INCLINATION,RA_OF_ASC_NODE,ARG_OF_PERICENTER,MEAN_ANOMALY,BSTAR,MEAN_MOTION_DOT,MEAN_MOTION_DDOT,TLE_LINE0,TLE_LINE1,TLE_LINE2,SEMIMAJOR_AXIS,PERIOD,APOGEE,PERIGEE,DECAYED
55758.0,STARLINK-5072,PAYLOAD,2023-05-13 22:00:00,14.98305776,0.0003308,70.0016,323.2921,272.9751,65.6369,0.0029433,0.00035181,0.0,0 STARLINK-5072,1 55758U 23028T   23133.91667824  .00035181  00000-0  29433-2 0  9991,2 55758  70.0016 323.2921 0003308 272.9751  65.6369 14.98305776 11631,6950.268,96.109,574.432,569.834,0.0
55758.0,STARLINK-5072,PAYLOAD,2023-05-14 14:07:05,14.98332469,0.0003304,69.9996,321.5993,269.0253,91.0527,-3.6919e-05,-5.34e-06,0.0,0 STARLINK-5072,1 55758U 23028T   23134.58825777 -.00000534  00000-0 -36919-4 0  9993,2 55758  69.9996 321.5993 0003304 269.0253  91.0527 14.98332469 11745,6950.185,96.107,574.347,569.754,0.0
55758.0,STARLINK-5072,PAYLOAD,2023-05-14 20:31:37,14.98335401,0.0003308,69.9995,320.9259,268.8239,91.2541,-6.5031e-06,-1.71e-06,0.0,0 STARLINK-5072,1 55758U 23028T   23134.85529447 -.00000171  00000-0 -65031-5 0  9993,2 55758  69.9995 320.9259 0003308 268.8239  91.2541 14.98335401 11788,6950.176,96.107,574.34,569.742,0.0
55758.0,STARLINK-5072,PAYLOAD,2023-05-15 12:32:58,14.9832741,0.0003258,69.9995,319.2426,270.3241,89.7545,8.5647e-05,9.29e-06,0.0,0 STARLINK-5072,1 55758U 23028T   23135.52289596  .00000929  00000-0  85647-4 0  9999,2 55758  69.9995 319.2426 0003258 270.3241  89.7545 14.98327410 11888,6950.201,96.107,574.33,569.802,0.0
55758.0,STARLINK-5072,PAYLOAD,2023-05-15 18:57:30,14.98329761,0.0003272,69.9995,318.5693,270.2917,89.7867,7.138e-05,7.59e-06,0.0,0 STARLINK-5072,1 55758U 23028T   23135.78993502  .00000759  00000-0  71380-4 0  9996,2 55758  69.9995 318.5693 0003272 270.2917  89.7867 14.98329761 11924,6950.194,96.107,574.333,569.785,0.0
55758.0,STARLINK-5072,PAYLOAD,2023-05-15 22:09:46,14.98330417,0.0003262,69.9995,318.2325,270.2894,89.7891,7.4894e-05,8.01e-06,0.0,0 STARLINK-5072,1 55758U 23028T   23135.92345442  .00000801  00000-0  74894-4 0  9997,2 55758  69.9995 318.2325 0003262 270.2894  89.7891 14.98330417 11945,6950.192,96.107,574.324,569.789,0.0
55758.0,STARLINK-5072,PAYLOAD,2023-05-16 12:34:59,14.98332792,0.0003175,69.9997,316.7174,270.4373,89.6422,1.6093e-06,-7.4e-07,0.0,0 STARLINK-5072,1 55758U 23028T   23136.52429447 -.00000074  00000-0  16093-5 0  9993,2 55758  69.9997 316.7174 0003175 270.4373  89.6422 14.98332792 12037,6950.184,96.107,574.256,569.843,0.0
55758.0,STARLINK-5072,PAYLOAD,2023-05-16 18:59:31,14.98334082,0.0003174,69.9998,316.0446,269.1656,90.914,-1.6138e-06,-1.12e-06,0.0,0 STARLINK-5072,1 55758U 23028T   23136.79133302 -.00000112  00000-0 -16138-5 0  9998,2 55758  69.9998 316.0446 0003174 269.1656  90.9140 14.98334082 12071,6950.18,96.107,574.251,569.839,0.0
55758.0,STARLINK-5072,PAYLOAD,2023-05-16 22:11:47,14.98334815,0.0003169,69.9997,315.7075,270.0981,89.9815,8.4807e-06,8e-08,0.0,0 STARLINK-5072,1 55758U 23028T   23136.92485186  .00000008  00000-0  84807-5 0  9993,2 55758  69.9997 315.7075 0003169 270.0981  89.9815 14.98334815 12093,6950.178,96.107,574.246,569.84,0.0
55758.0,STARLINK-5072,PAYLOAD,2023-05-17 19:01:32,14.98329201,0.0003162,69.9997,313.5189,271.1023,88.9773,-3.5245e-05,-5.14e-06,0.0,0 STARLINK-5072,1 55758U 23028T   23137.79273556 -.00000514  00000-0 -35245-4 0  9990,2 55758  69.9997 313.5189 0003162 271.1023  88.9773 14.98329201 12227,6950.195,96.107,574.258,569.863,0.0
55758.0,STARLINK-5072,PAYLOAD,2023-05-17 20:37:40,14.98329613,0.0003158,69.9998,313.3506,271.1287,88.951,-3.0017e-05,-4.51e-06,0.0,0 STARLINK-5072,1 55758U 23028T   23137.85949513 -.00000451  00000-0 -30017-4 0  9992,2 55758  69.9998 313.3506 0003158 271.1287  88.9510 14.98329613 12233,6950.194,96.107,574.254,569.864,0.0
55758.0,STARLINK-5072,PAYLOAD,2023-05-18 12:39:00,14.98331751,0.0003177,69.9997,311.6673,270.7553,89.3242,-1.933e-05,-3.24e-06,0.0,0 STARLINK-5072,1 55758U 23028T   23138.52709318 -.00000324  00000-0 -19330-4 0  9998,2 55758  69.9997 311.6673 0003177 270.7553  89.3242 14.98331751 12334,6950.187,96.107,574.261,569.844,0.0
55758.0,STARLINK-5072,PAYLOAD,2023-05-18 17:27:25,14.98331858,0.000318,69.9997,311.1623,270.9998,89.0797,-1.5847e-05,-2.82e-06,0.0,0 STARLINK-5072,1 55758U 23028T   23138.72737276 -.00000282  00000-0 -15847-4 0  9996,2 55758  69.9997 311.1623 0003180 270.9998  89.0797 14.98331858 12366,6950.187,96.107,574.262,569.842,0.0
55758.0,STARLINK-5072,PAYLOAD,2023-05-19 04:40:21,14.98329963,0.0003163,69.9997,309.9839,270.8502,89.2294,9.459e-07,-8.2e-07,0.0,0 STARLINK-5072,1 55758U 23028T   23139.19469311 -.00000082  00000-0  94590-6 0  9991,2 55758  69.9997 309.9839 0003163 270.8502  89.2294 14.98329963 12437,6950.193,96.107,574.256,569.86,0.0
55758.0,STARLINK-5072,PAYLOAD,2023-05-19 20:41:42,14.98329272,0.0003223,69.9996,308.3007,270.5694,89.5095,2.3985e-05,1.93e-06,0.0,0 STARLINK-5072,1 55758U 23028T   23139.86229280  .00000193  00000-0  23985-4 0  9994,2 55758  69.9996 308.3007 0003223 270.5694  89.5095 14.98329272 12538,6950.195,96.107,574.3,569.82,0.0
55758.0,STARLINK-5072,PAYLOAD,2023-05-20 11:06:54,14.98330089,0.0003204,69.9996,306.7859,270.4607,89.6185,4.254e-06,-4.2e-07,0.0,0 STARLINK-5072,1 55758U 23028T   23140.46313304 -.00000042  00000-0  42540-5 0  9996,2 55758  69.9996 306.7859 0003204 270.4607  89.6185 14.98330089 12626,6950.193,96.107,574.284,569.831,0.0
55758.0,STARLINK-5072,PAYLOAD,2023-05-20 20:43:42,14.98334769,0.0003213,69.9996,305.7752,269.1456,90.9335,4.9226e-05,4.94e-06,0.0,0 STARLINK-5072,1 55758U 23028T   23140.86368792  .00000494  00000-0  49226-4 0  9998,2 55758  69.9996 305.7752 0003213 269.1456  90.9335 14.98334769 12681,6950.178,96.107,574.276,569.81,0.0
55758.0,STARLINK-5072,PAYLOAD,2023-05-21 11:08:55,14.98325945,0.0003145,70.0003,304.2594,269.3865,90.6934,-2.0458e-05,-3.37e-06,0.0,0 STARLINK-5072,1 55758U 23028T   23141.46453529 -.00000337  00000-0 -20458-4 0  9992,2 55758  70.0003 304.2594 0003145 269.3865  90.6934 14.98325945 12779,6950.205,96.107,574.256,569.885,0.0
55758.0,STARLINK-5072,PAYLOAD,2023-05-21 17:33:28,14.98323935,0.0003152,69.9999,303.5869,270.974,89.1058,-6.8746e-05,-9.13e-06,0.0,0 STARLINK-5072,1 55758U 23028T   23141.73157895 -.00000913  00000-0 -68746-4 0  9991,2 55758  69.9999 303.5869 0003152 270.9740  89.1058 14.98323935 12817,6950.212,96.107,574.267,569.886,0.0
55758.0,STARLINK-5072,PAYLOAD,2023-05-21 20:45:44,14.98322637,0.0003218,69.9999,303.2505,271.3269,88.7521,-8.0281e-05,-1.051e-05,0.0,0 STARLINK-5072,1 55758U 23028T   23141.86510066 -.00001051  00000-0 -80281-4 0  9990,2 55758  69.9999 303.2505 0003218 271.3269  88.7521 14.98322637 12835,6950.216,96.107,574.317,569.844,0.0
55758.0,STARLINK-5072,PAYLOAD,2023-05-22 09:34:48,14.98333576,0.0003184,69.9998,301.9041,271.8558,88.2237,-7.702e-06,-1.85e-06,0.0,0 STARLINK-5072,1 55758U 23028T   23142.39917294 -.00000185  00000-0 -77020-5 0  9998,2 55758  69.9998 301.9041 0003184 271.8558  88.2237 14.98333576 12914,6950.182,96.107,574.26,569.834,0.0
55758.0,STARLINK-5072,PAYLOAD,2023-05-22 17:35:28,14.98361361,0.0002852,69.9996,301.0625,263.2672,96.8163,-0.00036167,-4.409e-05,0.0,0 STARLINK-5072,1 55758U 23028T   23142.73296354 -.00004409  00000-0 -36167-3 0  9991,2 55758  69.9996 301.0625 0002852 263.2672  96.8163 14.98361361 12965,6950.096,96.105,573.943,569.979,0.0
55758.0,STARLINK-5072,PAYLOAD,2023-05-23 11:12:57,14.98323937,0.0003406,69.9995,299.2108,272.3564,87.7205,7.6185e-05,8.16e-06,0.0,0 STARLINK-5072,1 55758U 23028T   23143.46733451  .00000816  00000-0  76185-4 0  9997,2 55758  69.9995 299.2108 0003406 272.3564  87.7205 14.98323937 13071,6950.212,96.107,574.444,569.709,0.0
55758.0,STARLINK-5072,PAYLOAD,2023-05-23 19:13:38,14.98325524,0.00034,69.9996,298.3694,271.7926,88.2844,7.4284e-05,7.93e-06,0.0,0 STARLINK-5072,1 55758U 23028T   23143.80113445  .00000793  00000-0  74284-4 0  9992,2 55758  69.9996 298.3694 0003400 271.7926  88.2844 14.98325524 13126,6950.207,96.107,574.435,569.709,0.0
55758.0,STARLINK-5072,PAYLOAD,2023-05-24 16:03:22,14.98333831,0.000341,69.9996,296.1811,271.3005,88.7764,-2.4586e-05,-3.86e-06,0.0,0 STARLINK-5072,1 55758U 23028T   23144.66901176 -.00000386  00000-0 -24586-4 0  9993,2 55758  69.9996 296.1811 0003410 271.3005  88.7764 14.98333831 13258,6950.181,96.107,574.416,569.676,0.0
55758.0,STARLINK-5072,PAYLOAD,2023-05-25 14:29:15,14.98326918,0.0003301,70.0,293.8245,270.0171,90.061,-9.3899e-07,-1.04e-06,0.0,0 STARLINK-5072,1 55758U 23028T   23145.60365474 -.00000104  00000-0 -93899-6 0  9996,2 55758  70.0000 293.8245 0003301 270.0171  90.0610 14.98326918 13390,6950.202,96.107,574.362,569.773,0.0
55758.0,STARLINK-5072,PAYLOAD,2023-05-25 17:41:31,14.98328314,0.0003281,70.0,293.4879,269.9351,90.1432,1.5701e-05,9.4e-07,0.0,0 STARLINK-5072,1 55758U 23028T   23145.73717353  .00000094  00000-0  15701-4 0  9997,2 55758  70.0000 293.4879 0003281 269.9351  90.1432 14.98328314 13411,6950.198,96.107,574.343,569.783,0.0
55758.0,STARLINK-5072,PAYLOAD,2023-05-25 19:17:39,14.98328792,0.0003276,70.0001,293.3196,269.9191,90.1593,2.0581e-05,1.53e-06,0.0,0 STARLINK-5072,1 55758U 23028T   23145.80393312  .00000153  00000-0  20581-4 0  9998,2 55758  70.0001 293.3196 0003276 269.9191  90.1593 14.98328792 13428,6950.197,96.107,574.339,569.785,0.0
55758.0,STARLINK-5072,PAYLOAD,2023-05-26 12:55:08,14.98329749,0.000327,70.0001,291.4682,269.8402,90.2382,-1.3398e-05,-2.53e-06,0.0,0 STARLINK-5072,1 55758U 23028T   23146.53829362 -.00000253  00000-0 -13398-4 0  9999,2 55758  70.0001 291.4682 0003270 269.8402  90.2382 14.98329749 13537,6950.194,96.107,574.331,569.786,0.0
55758.0,STARLINK-5072,PAYLOAD,2023-05-26 17:43:32,14.98329422,0.000327,70.0001,290.9633,269.8586,90.2198,-1.0871e-05,-2.23e-06,0.0,0 STARLINK-5072,1 55758U 23028T   23146.73857378 -.00000223  00000-0 -10871-4 0  9999,2 55758  70.0001 290.9633 0003270 269.8586  90.2198 14.98329422 13566,6950.195,96.107,574.332,569.787,0.0
